{
  "type": "FeatureCollection",
  "features": [
    {
      "type": "Feature",
      "properties": {
        "norad_id": 40810,
        "name": "COSMOS 2251 DEB",
        "group": "cosmos-2251-debris",
        "lat": 14.296210519475448,
        "lon": 62.58822740429303,
        "alt_km": 710.1896942734684,
        "timestamp": "2025-12-21T07:34:34.912559+00:00",
        "meta_object_name": "COSMOS 2251 DEB",
        "meta_object_id": "1993-036BWP",
        "meta_epoch": "2025-12-20T21:37:57.746784",
        "meta_mean_motion": 14.58766963,
        "meta_eccentricity": 0.00181228,
        "meta_inclination": 74.0366,
        "meta_ra_of_asc_node": 59.1939,
        "meta_arg_of_pericenter": 210.007,
        "meta_mean_anomaly": 150.0058,
        "meta_ephemeris_type": 0,
        "meta_classification_type": "U",
        "meta_norad_cat_id": 40810,
        "meta_element_set_no": 999,
        "meta_rev_at_epoch": 61802,
        "meta_bstar": 0.00043511695,
        "meta_mean_motion_dot": 2.008e-05,
        "meta_mean_motion_ddot": 0,
        "tle_line1": "1 40810U 93036BWP 25354.90136281  .00002008  00000+0  43512-3 0  9990",
        "tle_line2": "2 40810  74.0366  59.1939 0018122 210.0070 150.0058 14.58766963618022"
      },
      "geometry": {
        "type": "Point",
        "coordinates": [
          62.58822740429303,
          14.296210519475448
        ]
      }
    },
    {
      "type": "Feature",
      "properties": {
        "norad_id": 46271,
        "name": "COSMOS 2251 DEB",
        "group": "cosmos-2251-debris",
        "lat": 27.424740716349145,
        "lon": 70.6201796569239,
        "alt_km": 744.6893035306748,
        "timestamp": "2025-12-21T07:34:34.912568+00:00",
        "meta_object_name": "COSMOS 2251 DEB",
        "meta_object_id": "1993-036BWT",
        "meta_epoch": "2025-12-19T22:21:35.328960",
        "meta_mean_motion": 14.51444335,
        "meta_eccentricity": 0.003987,
        "meta_inclination": 74.0479,
        "meta_ra_of_asc_node": 64.6869,
        "meta_arg_of_pericenter": 184.8218,
        "meta_mean_anomaly": 175.2565,
        "meta_ephemeris_type": 0,
        "meta_classification_type": "U",
        "meta_norad_cat_id": 46271,
        "meta_element_set_no": 999,
        "meta_rev_at_epoch": 84746,
        "meta_bstar": 0.00020357,
        "meta_mean_motion_dot": 7.93e-06,
        "meta_mean_motion_ddot": 0,
        "tle_line1": "1 46271U 93036BWT 25353.93165890  .00000793  00000+0  20357-3 0  9998",
        "tle_line2": "2 46271  74.0479  64.6869 0039870 184.8218 175.2565 14.51444335847465"
      },
      "geometry": {
        "type": "Point",
        "coordinates": [
          70.6201796569239,
          27.424740716349145
        ]
      }
    },
    {
      "type": "Feature",
      "properties": {
        "norad_id": 46430,
        "name": "COSMOS 2251 DEB",
        "group": "cosmos-2251-debris",
        "lat": 73.85597887247275,
        "lon": 74.61893071876052,
        "alt_km": 785.1130675148561,
        "timestamp": "2025-12-21T07:34:34.912577+00:00",
        "meta_object_name": "COSMOS 2251 DEB",
        "meta_object_id": "1993-036BWU",
        "meta_epoch": "2025-12-19T07:10:40.968192",
        "meta_mean_motion": 14.51392906,
        "meta_eccentricity": 0.0103211,
        "meta_inclination": 73.9139,
        "meta_ra_of_asc_node": 343.9071,
        "meta_arg_of_pericenter": 263.0684,
        "meta_mean_anomaly": 95.8727,
        "meta_ephemeris_type": 0,
        "meta_classification_type": "U",
        "meta_norad_cat_id": 46430,
        "meta_element_set_no": 999,
        "meta_rev_at_epoch": 79778,
        "meta_bstar": 0.0013871,
        "meta_mean_motion_dot": 5.902e-05,
        "meta_mean_motion_ddot": 0,
        "tle_line1": "1 46430U 93036BWU 25353.29908528  .00005902  00000+0  13871-2 0  9996",
        "tle_line2": "2 46430  73.9139 343.9071 0103211 263.0684  95.8727 14.51392906797781"
      },
      "geometry": {
        "type": "Point",
        "coordinates": [
          74.61893071876052,
          73.85597887247275
        ]
      }
    },
    {
      "type": "Feature",
      "properties": {
        "norad_id": 46432,
        "name": "COSMOS 2251 DEB",
        "group": "cosmos-2251-debris",
        "lat": -67.94543994501319,
        "lon": 52.210394134004794,
        "alt_km": 1000.1655367179319,
        "timestamp": "2025-12-21T07:34:34.912586+00:00",
        "meta_object_name": "COSMOS 2251 DEB",
        "meta_object_id": "1993-036BWW",
        "meta_epoch": "2025-12-16T14:54:01.415808",
        "meta_mean_motion": 13.36645779,
        "meta_eccentricity": 0.04740577,
        "meta_inclination": 73.8726,
        "meta_ra_of_asc_node": 105.1782,
        "meta_arg_of_pericenter": 222.0894,
        "meta_mean_anomaly": 155.0222,
        "meta_ephemeris_type": 0,
        "meta_classification_type": "U",
        "meta_norad_cat_id": 46432,
        "meta_element_set_no": 999,
        "meta_rev_at_epoch": 67018,
        "meta_bstar": 0.0010887976,
        "meta_mean_motion_dot": 1.051e-05,
        "meta_mean_motion_ddot": 0,
        "tle_line1": "1 46432U 93036BWW 25350.62084972  .00001051  00000+0  10888-2 0  9996",
        "tle_line2": "2 46432  73.8726 105.1782 0474057 222.0894 155.0222 13.36645779670182"
      },
      "geometry": {
        "type": "Point",
        "coordinates": [
          52.210394134004794,
          -67.94543994501319
        ]
      }
    },
    {
      "type": "Feature",
      "properties": {
        "norad_id": 47045,
        "name": "COSMOS 2251 DEB",
        "group": "cosmos-2251-debris",
        "lat": -54.58760098488271,
        "lon": -22.918328597941194,
        "alt_km": 750.8977132981117,
        "timestamp": "2025-12-21T07:34:34.912595+00:00",
        "meta_object_name": "COSMOS 2251 DEB",
        "meta_object_id": "1993-036BWZ",
        "meta_epoch": "2025-12-08T18:12:30.966336",
        "meta_mean_motion": 14.3889696,
        "meta_eccentricity": 0.00302024,
        "meta_inclination": 74.0568,
        "meta_ra_of_asc_node": 156.4972,
        "meta_arg_of_pericenter": 298.2595,
        "meta_mean_anomaly": 80.2379,
        "meta_ephemeris_type": 0,
        "meta_classification_type": "U",
        "meta_norad_cat_id": 47045,
        "meta_element_set_no": 999,
        "meta_rev_at_epoch": 7748,
        "meta_bstar": 0.00016053941,
        "meta_mean_motion_dot": 4.71e-06,
        "meta_mean_motion_ddot": 0,
        "tle_line1": "1 47045U 93036BWZ 25342.75869174  .00000471  00000+0  16054-3 0  9994",
        "tle_line2": "2 47045  74.0568 156.4972 0030202 298.2595  80.2379 14.38896960 77482"
      },
      "geometry": {
        "type": "Point",
        "coordinates": [
          -22.918328597941194,
          -54.58760098488271
        ]
      }
    },
    {
      "type": "Feature",
      "properties": {
        "norad_id": 47048,
        "name": "COSMOS 2251 DEB",
        "group": "cosmos-2251-debris",
        "lat": -38.424779895146536,
        "lon": 136.13432165962632,
        "alt_km": 725.2591091552595,
        "timestamp": "2025-12-21T07:34:34.912604+00:00",
        "meta_object_name": "COSMOS 2251 DEB",
        "meta_object_id": "1993-036BXC",
        "meta_epoch": "2025-12-19T13:47:33.177120",
        "meta_mean_motion": 14.52356803,
        "meta_eccentricity": 0.0132576,
        "meta_inclination": 73.9784,
        "meta_ra_of_asc_node": 306.2511,
        "meta_arg_of_pericenter": 132.3729,
        "meta_mean_anomaly": 347.2197,
        "meta_ephemeris_type": 0,
        "meta_classification_type": "U",
        "meta_norad_cat_id": 47048,
        "meta_element_set_no": 999,
        "meta_rev_at_epoch": 59789,
        "meta_bstar": 0.00066595,
        "meta_mean_motion_dot": 3.012e-05,
        "meta_mean_motion_ddot": 0,
        "tle_line1": "1 47048U 93036BXC 25353.57468955  .00003012  00000+0  66595-3 0  9990",
        "tle_line2": "2 47048  73.9784 306.2511 0132576 132.3729 347.2197 14.52356803597890"
      },
      "geometry": {
        "type": "Point",
        "coordinates": [
          136.13432165962632,
          -38.424779895146536
        ]
      }
    },
    {
      "type": "Feature",
      "properties": {
        "norad_id": 47051,
        "name": "COSMOS 2251 DEB",
        "group": "cosmos-2251-debris",
        "lat": 68.68506723533278,
        "lon": -143.49484892210185,
        "alt_km": 1227.799451535122,
        "timestamp": "2025-12-21T07:34:34.912613+00:00",
        "meta_object_name": "COSMOS 2251 DEB",
        "meta_object_id": "1993-036BXF",
        "meta_epoch": "2025-12-13T06:55:53.868288",
        "meta_mean_motion": 13.67117141,
        "meta_eccentricity": 0.03401033,
        "meta_inclination": 74.1001,
        "meta_ra_of_asc_node": 182.6908,
        "meta_arg_of_pericenter": 296.1774,
        "meta_mean_anomaly": 246.9893,
        "meta_ephemeris_type": 0,
        "meta_classification_type": "U",
        "meta_norad_cat_id": 47051,
        "meta_element_set_no": 999,
        "meta_rev_at_epoch": 59945,
        "meta_bstar": 0.0019326179,
        "meta_mean_motion_dot": 2.391e-05,
        "meta_mean_motion_ddot": 0,
        "tle_line1": "1 47051U 93036BXF 25347.28881792  .00002391  00000+0  19326-2 0  9991",
        "tle_line2": "2 47051  74.1001 182.6908 0340103 296.1774 246.9893 13.67117141599458"
      },
      "geometry": {
        "type": "Point",
        "coordinates": [
          -143.49484892210185,
          68.68506723533278
        ]
      }
    }
  ]
}